STARLINK-5541           
1 56475U 23064AD  26068.52211651  .00002320  00000+0  20203-3 0  9993
2 56475  69.9994 124.9029 0003381 267.8014  92.2758 14.98353783155718
LEMUR-2-LUCILLE-ROSE    
1 65403U 25135BV  26068.85671001  .00014478  00000+0  12144-2 0  9991
2 65403  97.7607 185.3540 0009982 240.4750 119.5478 14.98437227 33752
